[{"OBJECT_NAME":"DMSP 5D-3 F18 (USA 210)","OBJECT_ID":"2009-057A","EPOCH":"2026-03-09T22:11:19.578624","MEAN_MOTION":14.14835918,"ECCENTRICITY":0.00111332,"INCLINATION":98.8964,"RA_OF_ASC_NODE":49.953,"ARG_OF_PERICENTER":167.567,"MEAN_ANOMALY":192.578,"EPHEMERIS_TYPE":0,"CLASSIFICATION_TYPE":"U","NORAD_CAT_ID":35951,"ELEMENT_SET_NO":999,"REV_AT_EPOCH":84555,"BSTAR":0.0001892164,"MEAN_MOTION_DOT":3.21e-6,"MEAN_MOTION_DDOT":0},{"OBJECT_NAME":"CZ-6A DEB","OBJECT_ID":"2024-140TJ","EPOCH":"2026-03-09T14:04:51.425184","MEAN_MOTION":14.21200238,"ECCENTRICITY":0.0060205,"INCLINATION":89.0437,"RA_OF_ASC_NODE":289.1574,"ARG_OF_PERICENTER":144.3048,"MEAN_ANOMALY":216.2192,"EPHEMERIS_TYPE":0,"CLASSIFICATION_TYPE":"U","NORAD_CAT_ID":61297,"ELEMENT_SET_NO":999,"REV_AT_EPOCH":7916,"BSTAR":0.0016214,"MEAN_MOTION_DOT":3.606e-5,"MEAN_MOTION_DDOT":0}]
